start=new Date('2022-08-13T00:00:00.000Z').valueOf();
sats=[{"SEMIMAJOR_AXIS":"6925.364","CENTER_NAME":"EARTH","PERIOD":"95.592","REF_FRAME":"TEME","ELEMENT_SET_NO":"999","TLE_LINE1":"1 46153U 20057AN  22224.73592086  .00001316  00000-0  10726-3 0  9995","LAUNCH_DATE":"2020-08-18","MEAN_MOTION_DOT":"0.00001316","GP_ID":"210103782","TLE_LINE2":"2 46153  53.0547  34.7881 0001409  93.9213 266.1938 15.06395017109650","NORAD_CAT_ID":"46153","MEAN_MOTION":"15.06395017","EPHEMERIS_TYPE":"0","RCS_SIZE":"LARGE","EPOCH":"2022-08-12T17:39:43.562304","COUNTRY_CODE":"US","RA_OF_ASC_NODE":"34.7881","REV_AT_EPOCH":"10965","ECCENTRICITY":"0.00014090","CLASSIFICATION_TYPE":"U","SITE":"AFETR","INCLINATION":"53.0547","APOAPSIS":"548.205","DECAY_DATE":null,"OBJECT_ID":"2020-057AN","MEAN_MOTION_DDOT":"0.0000000000000","PERIAPSIS":"546.253","FILE":"3535519","MEAN_ANOMALY":"266.1938","OBJECT_NAME":"STARLINK-1636","OBJECT_TYPE":"PAYLOAD","MEAN_ELEMENT_THEORY":"SGP4","ARG_OF_PERICENTER":"93.9213","BSTAR":"0.00010726000000","TIME_SYSTEM":"UTC"},{"BSTAR":"0.00057314000000","TIME_SYSTEM":"UTC","OBJECT_TYPE":"PAYLOAD","MEAN_ELEMENT_THEORY":"SGP4","ARG_OF_PERICENTER":"86.2028","MEAN_ANOMALY":"273.9115","OBJECT_NAME":"STARLINK-1642","FILE":"3535519","MEAN_MOTION_DDOT":"0.0000000000000","PERIAPSIS":"546.247","APOAPSIS":"548.121","DECAY_DATE":null,"OBJECT_ID":"2020-057AP","INCLINATION":"53.0532","ECCENTRICITY":"0.00013530","SITE":"AFETR","CLASSIFICATION_TYPE":"U","COUNTRY_CODE":"US","REV_AT_EPOCH":"10953","RA_OF_ASC_NODE":"44.4459","NORAD_CAT_ID":"46154","MEAN_MOTION":"15.06409702","RCS_SIZE":"LARGE","EPHEMERIS_TYPE":"0","EPOCH":"2022-08-12T19:29:51.874080","MEAN_MOTION_DOT":"0.00008268","LAUNCH_DATE":"2020-08-18","GP_ID":"210104533","TLE_LINE2":"2 46154  53.0532  44.4459 0001353  86.2028 273.9115 15.06409702109538","REF_FRAME":"TEME","ELEMENT_SET_NO":"999","TLE_LINE1":"1 46154U 20057AP  22224.81240595  .00008268  00000-0  57314-3 0  9997","PERIOD":"95.592","SEMIMAJOR_AXIS":"6925.319","CENTER_NAME":"EARTH"},{"REV_AT_EPOCH":"11118","RA_OF_ASC_NODE":"14.6346","COUNTRY_CODE":"US","EPHEMERIS_TYPE":"0","RCS_SIZE":"LARGE","EPOCH":"2022-08-12T18:30:08.769312","MEAN_MOTION":"15.06397401","NORAD_CAT_ID":"46155","CLASSIFICATION_TYPE":"U","SITE":"AFETR","ECCENTRICITY":"0.00015620","PERIOD":"95.592","CENTER_NAME":"EARTH","SEMIMAJOR_AXIS":"6925.357","GP_ID":"210102782","TLE_LINE2":"2 46155  53.0578  14.6346 0001562  91.0230 269.0938 15.06397401111189","LAUNCH_DATE":"2020-08-18","MEAN_MOTION_DOT":"0.00000130","TLE_LINE1":"1 46155U 20057AQ  22224.77093483  .00000130  00000-0  27612-4 0  9994","ELEMENT_SET_NO":"999","REF_FRAME":"TEME","OBJECT_NAME":"STARLINK-1667","MEAN_ANOMALY":"269.0938","FILE":"3535519","TIME_SYSTEM":"UTC","BSTAR":"0.00002761200000","MEAN_ELEMENT_THEORY":"SGP4","ARG_OF_PERICENTER":"91.0230","OBJECT_TYPE":"PAYLOAD","OBJECT_ID":"2020-057AQ","DECAY_DATE":null,"APOAPSIS":"548.303","INCLINATION":"53.0578","PERIAPSIS":"546.140","MEAN_MOTION_DDOT":"0.0000000000000"},{"COUNTRY_CODE":"US","REV_AT_EPOCH":"11092","RA_OF_ASC_NODE":"34.3720","NORAD_CAT_ID":"46156","MEAN_MOTION":"15.06392168","EPHEMERIS_TYPE":"0","RCS_SIZE":"LARGE","EPOCH":"2022-08-12T19:52:26.715936","ECCENTRICITY":"0.00012090","SITE":"AFETR","CLASSIFICATION_TYPE":"U","PERIOD":"95.593","SEMIMAJOR_AXIS":"6925.373","CENTER_NAME":"EARTH","LAUNCH_DATE":"2020-08-18","MEAN_MOTION_DOT":"0.00002392","GP_ID":"210103032","TLE_LINE2":"2 46156  53.0570  34.3720 0001209  85.3572 274.7555 15.06392168110924","REF_FRAME":"TEME","ELEMENT_SET_NO":"999","TLE_LINE1":"1 46156U 20057AR  22224.82808699  .00002392  00000-0  17947-3 0  9995","MEAN_ANOMALY":"274.7555","OBJECT_NAME":"STARLINK-1545","FILE":"3535519","BSTAR":"0.00017947000000","TIME_SYSTEM":"UTC","OBJECT_TYPE":"PAYLOAD","MEAN_ELEMENT_THEORY":"SGP4","ARG_OF_PERICENTER":"85.3572","APOAPSIS":"548.075","DECAY_DATE":null,"OBJECT_ID":"2020-057AR","INCLINATION":"53.0570","MEAN_MOTION_DDOT":"0.0000000000000","PERIAPSIS":"546.400"},{"REF_FRAME":"TEME","TLE_LINE1":"1 46157U 20057AS  22224.68247321  .00003425  00000-0  24872-3 0  9992","ELEMENT_SET_NO":"999","TLE_LINE2":"2 46157  53.0568  15.0359 0001434  77.3368 282.7781 15.06397979109934","GP_ID":"210104283","MEAN_MOTION_DOT":"0.00003425","LAUNCH_DATE":"2020-08-18","SEMIMAJOR_AXIS":"6925.355","CENTER_NAME":"EARTH","PERIOD":"95.592","ECCENTRICITY":"0.00014340","SITE":"AFETR","CLASSIFICATION_TYPE":"U","MEAN_MOTION":"15.06397979","NORAD_CAT_ID":"46157","EPOCH":"2022-08-12T16:22:45.685344","RCS_SIZE":"LARGE","EPHEMERIS_TYPE":"0","RA_OF_ASC_NODE":"15.0359","REV_AT_EPOCH":"10993","COUNTRY_CODE":"US","MEAN_MOTION_DDOT":"0.0000000000000","PERIAPSIS":"546.227","INCLINATION":"53.0568","APOAPSIS":"548.213","OBJECT_ID":"2020-057AS","DECAY_DATE":null,"MEAN_ELEMENT_THEORY":"SGP4","ARG_OF_PERICENTER":"77.3368","OBJECT_TYPE":"PAYLOAD","TIME_SYSTEM":"UTC","BSTAR":"0.00024872000000","FILE":"3535519","MEAN_ANOMALY":"282.7781","OBJECT_NAME":"STARLINK-1587"},{"ELEMENT_SET_NO":"999","TLE_LINE1":"1 46158U 20057AT  22224.67878125  .00003576  00000-0  25879-3 0  9999","REF_FRAME":"TEME","LAUNCH_DATE":"2020-08-18","MEAN_MOTION_DOT":"0.00003576","TLE_LINE2":"2 46158  53.0567  15.0531 0001319 103.9456 256.1680 15.06402436111191","GP_ID":"210104033","CENTER_NAME":"EARTH","SEMIMAJOR_AXIS":"6925.341","PERIOD":"95.592","CLASSIFICATION_TYPE":"U","SITE":"AFETR","ECCENTRICITY":"0.00013190","RCS_SIZE":"LARGE","EPHEMERIS_TYPE":"0","EPOCH":"2022-08-12T16:17:26.700000","NORAD_CAT_ID":"46158","MEAN_MOTION":"15.06402436","COUNTRY_CODE":"US","RA_OF_ASC_NODE":"15.0531","REV_AT_EPOCH":"11119","PERIAPSIS":"546.293","MEAN_MOTION_DDOT":"0.0000000000000","INCLINATION":"53.0567","DECAY_DATE":null,"OBJECT_ID":"2020-057AT","APOAPSIS":"548.120","OBJECT_TYPE":"PAYLOAD","ARG_OF_PERICENTER":"103.9456","MEAN_ELEMENT_THEORY":"SGP4","BSTAR":"0.00025879000000","TIME_SYSTEM":"UTC","FILE":"3535519","OBJECT_NAME":"STARLINK-1589","MEAN_ANOMALY":"256.1680"},{"REV_AT_EPOCH":"11064","RA_OF_ASC_NODE":"54.5680","COUNTRY_CODE":"US","EPHEMERIS_TYPE":"0","RCS_SIZE":"LARGE","EPOCH":"2022-08-12T18:51:23.407776","MEAN_MOTION":"15.06410631","NORAD_CAT_ID":"46159","CLASSIFICATION_TYPE":"U","SITE":"AFETR","ECCENTRICITY":"0.00013860","PERIOD":"95.591","CENTER_NAME":"EARTH","SEMIMAJOR_AXIS":"6925.316","GP_ID":"210103282","TLE_LINE2":"2 46159  53.0544  54.5680 0001386  77.8932 282.2212 15.06410631110648","LAUNCH_DATE":"2020-08-18","MEAN_MOTION_DOT":"0.00009658","TLE_LINE1":"1 46159U 20057AU  22224.78568759  .00009658  00000-0  66616-3 0  9992","ELEMENT_SET_NO":"999","REF_FRAME":"TEME","OBJECT_NAME":"STARLINK-1595","MEAN_ANOMALY":"282.2212","FILE":"3535519","TIME_SYSTEM":"UTC","BSTAR":"0.00066616000000","MEAN_ELEMENT_THEORY":"SGP4","ARG_OF_PERICENTER":"77.8932","OBJECT_TYPE":"PAYLOAD","OBJECT_ID":"2020-057AU","DECAY_DATE":null,"APOAPSIS":"548.141","INCLINATION":"53.0544","PERIAPSIS":"546.221","MEAN_MOTION_DDOT":"0.0000000000000"},{"PERIOD":"95.592","SEMIMAJOR_AXIS":"6925.347","CENTER_NAME":"EARTH","TLE_LINE2":"2 46160  53.0560  34.5974 0001319  72.4761 287.6372 15.06400549110912","GP_ID":"210103532","MEAN_MOTION_DOT":"0.00002057","LAUNCH_DATE":"2020-08-18","REF_FRAME":"TEME","TLE_LINE1":"1 46160U 20057AV  22224.77645577  .00002057  00000-0  15692-3 0  9991","ELEMENT_SET_NO":"999","REV_AT_EPOCH":"11091","RA_OF_ASC_NODE":"34.5974","COUNTRY_CODE":"US","MEAN_MOTION":"15.06400549","NORAD_CAT_ID":"46160","RCS_SIZE":"LARGE","EPHEMERIS_TYPE":"0","EPOCH":"2022-08-12T18:38:05.778528","ECCENTRICITY":"0.00013190","CLASSIFICATION_TYPE":"U","SITE":"AFETR","APOAPSIS":"548.125","OBJECT_ID":"2020-057AV","DECAY_DATE":null,"INCLINATION":"53.0560","MEAN_MOTION_DDOT":"0.0000000000000","PERIAPSIS":"546.298","MEAN_ANOMALY":"287.6372","OBJECT_NAME":"STARLINK-1598","FILE":"3535519","TIME_SYSTEM":"UTC","BSTAR":"0.00015692000000","MEAN_ELEMENT_THEORY":"SGP4","ARG_OF_PERICENTER":"72.4761","OBJECT_TYPE":"PAYLOAD"},{"TLE_LINE1":"1 46161U 20057AW  22224.75435166  .00005588  00000-0  39371-3 0  9993","ELEMENT_SET_NO":"999","REF_FRAME":"TEME","TLE_LINE2":"2 46161  53.0545  34.6936 0001397 101.4729 258.6417 15.06404952110918","GP_ID":"210103783","MEAN_MOTION_DOT":"0.00005588","LAUNCH_DATE":"2020-08-18","CENTER_NAME":"EARTH","SEMIMAJOR_AXIS":"6925.333","PERIOD":"95.592","CLASSIFICATION_TYPE":"U","SITE":"AFETR","ECCENTRICITY":"0.00013970","EPHEMERIS_TYPE":"0","RCS_SIZE":"LARGE","EPOCH":"2022-08-12T18:06:15.983424","MEAN_MOTION":"15.06404952","NORAD_CAT_ID":"46161","REV_AT_EPOCH":"11091","RA_OF_ASC_NODE":"34.6936","COUNTRY_CODE":"US","PERIAPSIS":"546.231","MEAN_MOTION_DDOT":"0.0000000000000","INCLINATION":"53.0545","OBJECT_ID":"2020-057AW","DECAY_DATE":null,"APOAPSIS":"548.166","MEAN_ELEMENT_THEORY":"SGP4","ARG_OF_PERICENTER":"101.4729","OBJECT_TYPE":"PAYLOAD","TIME_SYSTEM":"UTC","BSTAR":"0.00039371000000","FILE":"3535519","OBJECT_NAME":"STARLINK-1600","MEAN_ANOMALY":"258.6417"},{"MEAN_MOTION_DDOT":"0.0000000000000","PERIAPSIS":"546.236","INCLINATION":"53.0549","APOAPSIS":"548.085","OBJECT_ID":"2020-057AX","DECAY_DATE":null,"MEAN_ELEMENT_THEORY":"SGP4","ARG_OF_PERICENTER":"92.0347","OBJECT_TYPE":"PAYLOAD","TIME_SYSTEM":"UTC","BSTAR":"0.00072240000000","FILE":"3535519","MEAN_ANOMALY":"268.0795","OBJECT_NAME":"STARLINK-1603","REF_FRAME":"TEME","TLE_LINE1":"1 46162U 20057AX  22224.75803460  .00010500  00000-0  72240-3 0  9992","ELEMENT_SET_NO":"999","TLE_LINE2":"2 46162  53.0549  34.6964 0001335  92.0347 268.0795 15.06417434110921","GP_ID":"210104534","MEAN_MOTION_DOT":"0.00010500","LAUNCH_DATE":"2020-08-18","SEMIMAJOR_AXIS":"6925.295","CENTER_NAME":"EARTH","PERIOD":"95.591","ECCENTRICITY":"0.00013350","CLASSIFICATION_TYPE":"U","SITE":"AFETR","MEAN_MOTION":"15.06417434","NORAD_CAT_ID":"46162","EPOCH":"2022-08-12T18:11:34.189440","RCS_SIZE":"LARGE","EPHEMERIS_TYPE":"0","REV_AT_EPOCH":"11092","RA_OF_ASC_NODE":"34.6964","COUNTRY_CODE":"US"}];
